[Satellite]
VERSION=1.1
NAME=KKS-1 (KISEKI)
NICKNAME=KKS-1 (KISEKI)
TLE1=1 33499U 09002H   20158.19382275  .00000088  00000-0  20880-4 0  9990
TLE2=2 33499  98.3182  12.6214 0009557 153.4335 206.7364 14.75535163611351
STATUS=0
